[{"OBJECT_NAME":"ONEWEB-0218","OBJECT_ID":"2021-031E","EPOCH":"2025-11-12T07:37:40.671840","MEAN_MOTION":13.14504223,"ECCENTRICITY":0.00027624,"INCLINATION":87.9003,"RA_OF_ASC_NODE":332.8913,"ARG_OF_PERICENTER":86.9441,"MEAN_ANOMALY":273.2005,"EPHEMERIS_TYPE":0,"CLASSIFICATION_TYPE":"U","NORAD_CAT_ID":48214,"ELEMENT_SET_NO":999,"REV_AT_EPOCH":21988,"BSTAR":2.914983e-6,"MEAN_MOTION_DOT":1.4e-7,"MEAN_MOTION_DDOT":0},{"OBJECT_NAME":"ONEWEB-0209","OBJECT_ID":"2021-031F","EPOCH":"2025-11-12T07:21:40.747968","MEAN_MOTION":13.14502885,"ECCENTRICITY":0.00017776,"INCLINATION":87.8997,"RA_OF_ASC_NODE":332.9329,"ARG_OF_PERICENTER":85.6942,"MEAN_ANOMALY":274.4391,"EPHEMERIS_TYPE":0,"CLASSIFICATION_TYPE":"U","NORAD_CAT_ID":48215,"ELEMENT_SET_NO":999,"REV_AT_EPOCH":21988,"BSTAR":-0.0011807227,"MEAN_MOTION_DOT":-4.25e-6,"MEAN_MOTION_DDOT":0},{"OBJECT_NAME":"ONEWEB-0198","OBJECT_ID":"2021-031G","EPOCH":"2025-11-12T06:59:04.068384","MEAN_MOTION":13.14501424,"ECCENTRICITY":0.00021496,"INCLINATION":87.8998,"RA_OF_ASC_NODE":332.9336,"ARG_OF_PERICENTER":83.1923,"MEAN_ANOMALY":276.9451,"EPHEMERIS_TYPE":0,"CLASSIFICATION_TYPE":"U","NORAD_CAT_ID":48216,"ELEMENT_SET_NO":999,"REV_AT_EPOCH":21999,"BSTAR":0.00028648699,"MEAN_MOTION_DOT":1.19e-6,"MEAN_MOTION_DDOT":0},{"OBJECT_NAME":"ONEWEB-0189","OBJECT_ID":"2021-031H","EPOCH":"2025-11-12T07:17:07.894176","MEAN_MOTION":13.14501791,"ECCENTRICITY":0.00020942,"INCLINATION":87.8995,"RA_OF_ASC_NODE":332.9042,"ARG_OF_PERICENTER":84.8735,"MEAN_ANOMALY":275.2634,"EPHEMERIS_TYPE":0,"CLASSIFICATION_TYPE":"U","NORAD_CAT_ID":48217,"ELEMENT_SET_NO":999,"REV_AT_EPOCH":21973,"BSTAR":-0.00028458011,"MEAN_MOTION_DOT":-9.3e-7,"MEAN_MOTION_DDOT":0},{"OBJECT_NAME":"ONEWEB-0196","OBJECT_ID":"2021-031J","EPOCH":"2025-11-12T01:16:19.359840","MEAN_MOTION":13.1450123,"ECCENTRICITY":0.00019348,"INCLINATION":87.8997,"RA_OF_ASC_NODE":332.9692,"ARG_OF_PERICENTER":87.2463,"MEAN_ANOMALY":272.8888,"EPHEMERIS_TYPE":0,"CLASSIFICATION_TYPE":"U","NORAD_CAT_ID":48218,"ELEMENT_SET_NO":999,"REV_AT_EPOCH":21970,"BSTAR":0.00068398405,"MEAN_MOTION_DOT":2.66e-6,"MEAN_MOTION_DDOT":0},{"OBJECT_NAME":"ONEWEB-0183","OBJECT_ID":"2021-031K","EPOCH":"2025-11-12T00:39:47.008224","MEAN_MOTION":13.14504671,"ECCENTRICITY":0.00015646,"INCLINATION":87.8982,"RA_OF_ASC_NODE":332.9809,"ARG_OF_PERICENTER":91.068,"MEAN_ANOMALY":269.0629,"EPHEMERIS_TYPE":0,"CLASSIFICATION_TYPE":"U","NORAD_CAT_ID":48219,"ELEMENT_SET_NO":999,"REV_AT_EPOCH":21979,"BSTAR":0.00044919746,"MEAN_MOTION_DOT":1.79e-6,"MEAN_MOTION_DDOT":0},{"OBJECT_NAME":"ONEWEB-0185","OBJECT_ID":"2021-031L","EPOCH":"2025-11-12T01:17:29.579712","MEAN_MOTION":13.14502456,"ECCENTRICITY":0.00016093,"INCLINATION":87.8998,"RA_OF_ASC_NODE":332.9463,"ARG_OF_PERICENTER":79.6348,"MEAN_ANOMALY":280.4963,"EPHEMERIS_TYPE":0,"CLASSIFICATION_TYPE":"U","NORAD_CAT_ID":48220,"ELEMENT_SET_NO":999,"REV_AT_EPOCH":21972,"BSTAR":0.00050276091,"MEAN_MOTION_DOT":1.99e-6,"MEAN_MOTION_DDOT":0},{"OBJECT_NAME":"ONEWEB-0187","OBJECT_ID":"2021-031M","EPOCH":"2025-11-12T02:38:20.094720","MEAN_MOTION":13.14501463,"ECCENTRICITY":0.00018087,"INCLINATION":87.8989,"RA_OF_ASC_NODE":332.9805,"ARG_OF_PERICENTER":83.217,"MEAN_ANOMALY":276.9166,"EPHEMERIS_TYPE":0,"CLASSIFICATION_TYPE":"U","NORAD_CAT_ID":48221,"ELEMENT_SET_NO":999,"REV_AT_EPOCH":21974,"BSTAR":0.0005964052,"MEAN_MOTION_DOT":2.34e-6,"MEAN_MOTION_DDOT":0},{"OBJECT_NAME":"ONEWEB-0192","OBJECT_ID":"2021-031N","EPOCH":"2025-11-12T07:23:58.039296","MEAN_MOTION":13.14504495,"ECCENTRICITY":0.00019024,"INCLINATION":87.8989,"RA_OF_ASC_NODE":332.9321,"ARG_OF_PERICENTER":91.5498,"MEAN_ANOMALY":268.585,"EPHEMERIS_TYPE":0,"CLASSIFICATION_TYPE":"U","NORAD_CAT_ID":48222,"ELEMENT_SET_NO":999,"REV_AT_EPOCH":21968,"BSTAR":-0.00065519713,"MEAN_MOTION_DOT":-2.3e-6,"MEAN_MOTION_DDOT":0},{"OBJECT_NAME":"ONEWEB-0219","OBJECT_ID":"2021-031P","EPOCH":"2025-11-12T01:25:27.252480","MEAN_MOTION":13.14501307,"ECCENTRICITY":0.00017342,"INCLINATION":87.8997,"RA_OF_ASC_NODE":332.957,"ARG_OF_PERICENTER":84.4369,"MEAN_ANOMALY":275.6959,"EPHEMERIS_TYPE":0,"CLASSIFICATION_TYPE":"U","NORAD_CAT_ID":48223,"ELEMENT_SET_NO":999,"REV_AT_EPOCH":21985,"BSTAR":7.8729954e-5,"MEAN_MOTION_DOT":4.2e-7,"MEAN_MOTION_DDOT":0},{"OBJECT_NAME":"ONEWEB-0202","OBJECT_ID":"2021-031Q","EPOCH":"2025-11-12T00:58:05.039904","MEAN_MOTION":13.14504389,"ECCENTRICITY":0.00024398,"INCLINATION":87.8989,"RA_OF_ASC_NODE":332.9743,"ARG_OF_PERICENTER":82.3323,"MEAN_ANOMALY":277.8084,"EPHEMERIS_TYPE":0,"CLASSIFICATION_TYPE":"U","NORAD_CAT_ID":48224,"ELEMENT_SET_NO":999,"REV_AT_EPOCH":21983,"BSTAR":0.00059102575,"MEAN_MOTION_DOT":2.32e-6,"MEAN_MOTION_DDOT":0},{"OBJECT_NAME":"ONEWEB-0204","OBJECT_ID":"2021-031R","EPOCH":"2025-11-12T07:15:59.598432","MEAN_MOTION":13.14501345,"ECCENTRICITY":0.00015171,"INCLINATION":87.8997,"RA_OF_ASC_NODE":332.9105,"ARG_OF_PERICENTER":93.8715,"MEAN_ANOMALY":266.2588,"EPHEMERIS_TYPE":0,"CLASSIFICATION_TYPE":"U","NORAD_CAT_ID":48225,"ELEMENT_SET_NO":999,"REV_AT_EPOCH":21976,"BSTAR":-0.00032469537,"MEAN_MOTION_DOT":-1.08e-6,"MEAN_MOTION_DDOT":0},{"OBJECT_NAME":"ONEWEB-0205","OBJECT_ID":"2021-031S","EPOCH":"2025-11-12T01:11:45.448512","MEAN_MOTION":13.14501057,"ECCENTRICITY":0.00018141,"INCLINATION":87.9003,"RA_OF_ASC_NODE":332.9541,"ARG_OF_PERICENTER":87.6162,"MEAN_ANOMALY":272.5175,"EPHEMERIS_TYPE":0,"CLASSIFICATION_TYPE":"U","NORAD_CAT_ID":48226,"ELEMENT_SET_NO":999,"REV_AT_EPOCH":21974,"BSTAR":0.00063239657,"MEAN_MOTION_DOT":2.47e-6,"MEAN_MOTION_DDOT":0},{"OBJECT_NAME":"ONEWEB-0206","OBJECT_ID":"2021-031T","EPOCH":"2025-11-12T07:51:22.826592","MEAN_MOTION":13.1450158,"ECCENTRICITY":0.00019282,"INCLINATION":87.8999,"RA_OF_ASC_NODE":332.8863,"ARG_OF_PERICENTER":100.6101,"MEAN_ANOMALY":259.5246,"EPHEMERIS_TYPE":0,"CLASSIFICATION_TYPE":"U","NORAD_CAT_ID":48227,"ELEMENT_SET_NO":999,"REV_AT_EPOCH":21973,"BSTAR":0.0001671851,"MEAN_MOTION_DOT":7.5e-7,"MEAN_MOTION_DDOT":0},{"OBJECT_NAME":"ONEWEB-0182","OBJECT_ID":"2021-031U","EPOCH":"2025-11-12T00:26:05.262144","MEAN_MOTION":13.14504731,"ECCENTRICITY":0.00015808,"INCLINATION":87.8982,"RA_OF_ASC_NODE":332.9824,"ARG_OF_PERICENTER":92.3792,"MEAN_ANOMALY":267.7519,"EPHEMERIS_TYPE":0,"CLASSIFICATION_TYPE":"U","NORAD_CAT_ID":48228,"ELEMENT_SET_NO":999,"REV_AT_EPOCH":21990,"BSTAR":-8.0640062e-5,"MEAN_MOTION_DOT":-1.7e-7,"MEAN_MOTION_DDOT":0},{"OBJECT_NAME":"ONEWEB-0186","OBJECT_ID":"2021-031V","EPOCH":"2025-11-12T00:42:05.068512","MEAN_MOTION":13.1450435,"ECCENTRICITY":0.00017815,"INCLINATION":87.9001,"RA_OF_ASC_NODE":332.952,"ARG_OF_PERICENTER":89.0529,"MEAN_ANOMALY":271.0805,"EPHEMERIS_TYPE":0,"CLASSIFICATION_TYPE":"U","NORAD_CAT_ID":48229,"ELEMENT_SET_NO":999,"REV_AT_EPOCH":21985,"BSTAR":0.00022562803,"MEAN_MOTION_DOT":9.6e-7,"MEAN_MOTION_DDOT":0}]
