ONEWEB-0218             
1 48214U 21031E   25316.31783185  .00000014  00000+0  29150-5 0  9995
2 48214  87.9003 332.8913 0002762  86.9441 273.2005 13.14504223219888
ONEWEB-0209             
1 48215U 21031F   25316.30672162 -.00000425  00000+0 -11807-2 0  9992
2 48215  87.8997 332.9329 0001777  85.6942 274.4391 13.14502885219882
ONEWEB-0198             
1 48216U 21031G   25316.29101931  .00000119  00000+0  28649-3 0  9993
2 48216  87.8998 332.9336 0002149  83.1923 276.9451 13.14501424219992
ONEWEB-0189             
1 48217U 21031H   25316.30356359 -.00000093  00000+0 -28458-3 0  9993
2 48217  87.8995 332.9042 0002094  84.8735 275.2634 13.14501791219736
ONEWEB-0196             
1 48218U 21031J   25316.05300185  .00000266  00000+0  68398-3 0  9999
2 48218  87.8997 332.9692 0001934  87.2463 272.8888 13.14501230219706
ONEWEB-0183             
1 48219U 21031K   25316.02762741  .00000179  00000+0  44920-3 0  9995
2 48219  87.8982 332.9809 0001564  91.0680 269.0629 13.14504671219796
ONEWEB-0185             
1 48220U 21031L   25316.05381458  .00000199  00000+0  50276-3 0  9995
2 48220  87.8998 332.9463 0001609  79.6348 280.4963 13.14502456219724
ONEWEB-0187             
1 48221U 21031M   25316.10995480  .00000234  00000+0  59641-3 0  9993
2 48221  87.8989 332.9805 0001808  83.2170 276.9166 13.14501463219744
ONEWEB-0192             
1 48222U 21031N   25316.30831064 -.00000230  00000+0 -65520-3 0  9994
2 48222  87.8989 332.9321 0001902  91.5498 268.5850 13.14504495219686
ONEWEB-0219             
1 48223U 21031P   25316.05934320  .00000042  00000+0  78730-4 0  9993
2 48223  87.8997 332.9570 0001734  84.4369 275.6959 13.14501307219850
ONEWEB-0202             
1 48224U 21031Q   25316.04033611  .00000232  00000+0  59103-3 0  9999
2 48224  87.8989 332.9743 0002439  82.3323 277.8084 13.14504389219838
ONEWEB-0204             
1 48225U 21031R   25316.30277313 -.00000108  00000+0 -32470-3 0  9990
2 48225  87.8997 332.9105 0001517  93.8715 266.2588 13.14501345219760
ONEWEB-0205             
1 48226U 21031S   25316.04983158  .00000247  00000+0  63240-3 0  9994
2 48226  87.9003 332.9541 0001814  87.6162 272.5175 13.14501057219741
ONEWEB-0206             
1 48227U 21031T   25316.32734753  .00000075  00000+0  16719-3 0  9999
2 48227  87.8999 332.8863 0001928 100.6101 259.5246 13.14501580219730
ONEWEB-0182             
1 48228U 21031U   25316.01811646 -.00000017  00000+0 -80640-4 0  9996
2 48228  87.8982 332.9824 0001580  92.3792 267.7519 13.14504731219902
ONEWEB-0186             
1 48229U 21031V   25316.02922533  .00000096  00000+0  22563-3 0  9990
2 48229  87.9001 332.9520 0001781  89.0529 271.0805 13.14504350219850
